[{"OBJECT_NAME":"STARLINK-2039","OBJECT_ID":"2021-012AM","EPOCH":"2026-03-09T06:52:04.911744","MEAN_MOTION":15.3022049,"ECCENTRICITY":0.00015243,"INCLINATION":53.1608,"RA_OF_ASC_NODE":66.9388,"ARG_OF_PERICENTER":96.2115,"MEAN_ANOMALY":263.9059,"EPHEMERIS_TYPE":0,"CLASSIFICATION_TYPE":"U","NORAD_CAT_ID":47655,"ELEMENT_SET_NO":999,"REV_AT_EPOCH":28002,"BSTAR":0.00041146881,"MEAN_MOTION_DOT":0.00011854,"MEAN_MOTION_DDOT":0},{"OBJECT_NAME":"CZ-4B DEB","OBJECT_ID":"2010-051E","EPOCH":"2026-03-08T22:01:50.125728","MEAN_MOTION":15.23766972,"ECCENTRICITY":0.00561086,"INCLINATION":97.769,"RA_OF_ASC_NODE":240.5013,"ARG_OF_PERICENTER":301.1291,"MEAN_ANOMALY":58.4449,"EPHEMERIS_TYPE":0,"CLASSIFICATION_TYPE":"U","NORAD_CAT_ID":38184,"ELEMENT_SET_NO":999,"REV_AT_EPOCH":82066,"BSTAR":0.0024566319,"MEAN_MOTION_DOT":0.00062123,"MEAN_MOTION_DDOT":0}]
